#aV2021  7 25  0  0  0.00000000     288 DD+AD WGS84 FIT  NGA
## 2168      0.00000000   300.00000000 59420 0.0000000000000
+   32     1  2  3  4  5  6  7  8  9 10 11 12 13 14 15 16 17
+         18 19 20 21 22 23 24 25 26 27 28 29 30 31 32  0  0
+          0  0  0  0  0  0  0  0  0  0  0  0  0  0  0  0  0
+          0  0  0  0  0  0  0  0  0  0  0  0  0  0  0  0  0
+          0  0  0  0  0  0  0  0  0  0  0  0  0  0  0  0  0
++         2  2  2  2  2  2  2  2  2  2  2  2  2  2  2  2  2
++         2  2  2  2  2  2  2  2  2  2  2  2  2  2  2  0  0
++         0  0  0  0  0  0  0  0  0  0  0  0  0  0  0  0  0
++         0  0  0  0  0  0  0  0  0  0  0  0  0  0  0  0  0
++         0  0  0  0  0  0  0  0  0  0  0  0  0  0  0  0  0
%c cc cc ccc ccc cccc cccc cccc cccc ccccc ccccc ccccc ccccc
%c cc cc ccc ccc cccc cccc cccc cccc ccccc ccccc ccccc ccccc
%f  0.0000000  0.000000000  0.00000000000  0.000000000000000
%f  0.0000000  0.000000000  0.00000000000  0.000000000000000
%i    0    0    0    0      0      0      0      0         0
%i    0    0    0    0      0      0      0      0         0
/*      NGA, ST. LOUIS,MO.                                  
/*   EPHEMERIS COMPUTED FROM 2 DAYS OF DATA                 
/*   EPOCHA v6 SMOOTHER                                     
/*   G2139 IERS2010 SATIGS SATAPC                           
*  2021  7 25  4  5  0.00000000
P  1 -22373.621167 -14200.460064   3344.376227    617.974515                    
V  1  -2536.705068  -4156.936224 -31682.472019     -0.114601                    
P  2   7604.887149  19130.740344  17399.437185   -621.896842                    
V  2 -18454.351128  -9848.251047  19703.692986     -0.025605                    
P  3 -12512.193770 -11840.816842  20151.533043   -231.272018                    
V  3   3911.662645 -25457.901334 -12362.498242     -0.122170                    
P  4 -21154.426599  -3493.857392  15724.461332   -202.974730                    
V  4  17845.914003  -9073.203384  21941.001598     -0.006410                    
P  5   7597.175773  21777.811065 -13176.769253    -48.960084                    
V  5  -3694.375591  16307.490546  25295.009050     -0.011987                    
P  6  -4186.722778  14847.269813  21666.937947     45.174809                    
V  6 -22167.340926 -15981.504011   6741.758622      0.058013                    
P  7 -21534.619204  -2584.339627 -15292.282085    210.163113                    
V  7 -14682.548415 -13584.033868  21949.042744      0.085958                    
P  8 -12534.905670 -10289.180587 -21102.664950    -30.063268                    
V  8  24063.219484 -11550.444659  -8366.423428     -0.013540                    
P  9 -24988.994000   6454.950915   6266.045769   -356.699354                    
V  9   6117.697501  -5971.294916  30227.494286     -0.013098                    
P 10  11635.610989 -19310.490009 -13700.741472   -168.831832                    
V 10    176.748060  17817.698566 -25019.524485     -0.076126                    
P 11   5814.962294  19970.056764  16503.477402     22.994736                    
V 11 -17277.161575 -12063.329865  20658.159948      0.075412                    
P 12  11347.689329  13055.335662  19944.532037    -73.358392                    
V 12  -5753.292053  25174.139782 -12912.006592     -0.053246                    
P 13   3613.359338  14684.497977 -21968.385409    162.188032                    
V 13 -26533.214594   7406.124957    730.048107      0.050596                    
P 14 -12533.570762  19310.969846 -13213.289082     39.398927                    
V 14    313.975431 -16961.044285 -25136.377866     -0.088549                    
P 15  14232.152798   9609.995880 -20705.413418   -133.157824                    
V 15 -21637.367684  13529.430480  -8402.970634      0.026687                    
P 16   -707.204930 -24984.752784  -8515.014944   -362.618534                    
V 16   4657.589162  -9847.102617  29794.674945     -0.061862                    
P 17 -21542.518341  13537.788232   8055.747984    478.982333                    
V 17  -9699.058764   1478.557484 -30015.085630      0.058043                    
P 18  19843.627581     -5.446661 -17707.112728    338.477633                    
V 18  16796.645425  14902.868497  18753.884017     -0.029194                    
P 19 -15386.934333  15296.395595  14938.511872     30.754386                    
V 19 -19134.736937   4106.359312 -23613.153580      0.049801                    
P 20   1705.490182  26625.526827  -1169.622436    520.008285                    
V 20  -3218.126687   1544.572711  31054.710287     -0.001870                    
P 21 -20892.215822 -16268.141065  -3663.096398    133.299252                    
V 21   5957.395142    772.504279 -30901.426264      0.022679                    
P 22 -11055.112146 -18880.418720  15378.324602   -555.117504                    
V 22   2608.197044 -19160.494746 -21704.660145      0.094896                    
P 23  14898.004518  -8307.359185 -20365.464208     79.973029                    
V 23  -1309.145262  25797.785733 -11553.473546     -0.051658                    
P 24  21761.493518  15521.928132  -1887.176100    186.425732                    
V 24  -3515.957807   1647.831755 -30781.512443      0.132503                    
P 25  15125.398008    429.847306  21555.792784    179.437741                    
V 25  -2886.951283  27866.539234   1714.183365      0.066388                    
P 26   4389.614853 -25792.895708   3545.812657    114.645785                    
V 26   3303.850013   4863.129993  31059.621785      0.045415                    
P 27  -1271.864950 -15457.485027 -21692.979682   -168.097969                    
V 27  25126.537719 -10248.988265   6234.977763     -0.057938                    
P 28 -10013.199987  23452.425650  -7218.754088    531.934166                    
V 28   -182.179513 -10101.995860 -30095.755733     -0.066333                    
P 29  25190.253684  -3274.928268   7811.692883   -385.607041                    
V 29  -8761.812836   5084.884161  30137.210966     -0.059981                    
P 30 -13515.726173   9030.572369 -20966.954860   -454.661617                    
V 30 -20798.866840 -16979.592212   5836.909277     -0.043093                    
P 31   3123.087787 -16129.544155  20684.283748   -130.527851                    
V 31  21619.482368  15526.415965   9263.986028     -0.021074                    
P 32  18803.761524 -15885.924257   9862.268335     12.144554                    
V 32  12457.514986  -2532.047745 -28330.247491     -0.022572                    
EOF
